NORAD_CAT_ID,OBJECT_NAME,OBJECT_TYPE,EPOCH,MEAN_MOTION,ECCENTRICITY,INCLINATION,RA_OF_ASC_NODE,ARG_OF_PERICENTER,MEAN_ANOMALY,BSTAR,MEAN_MOTION_DOT,MEAN_MOTION_DDOT,TLE_LINE0,TLE_LINE1,TLE_LINE2,SEMIMAJOR_AXIS,PERIOD,APOGEE,PERIGEE,DECAYED
51805.0,STARLINK-3605,PAYLOAD,2022-12-18 01:38:23,15.08835527,0.0002928,53.2156,215.6637,30.1415,329.9745,0.0001388,1.921e-05,0.0,0 STARLINK-3605,1 51805U 22017AP  22352.06832850  .00001921  00000-0  13880-3 0  9993,2 51805  53.2156 215.6637 0002928  30.1415 329.9745 15.08835527 46461,6917.894,95.438,541.785,537.734,0.0
51805.0,STARLINK-3605,PAYLOAD,2022-12-18 19:07:38,15.08835115,0.0002958,53.2154,212.3926,32.4343,327.68300000000005,0.00011675,1.57e-05,0.0,0 STARLINK-3605,1 51805U 22017AP  22352.79697241  .00001570  00000-0  11675-3 0  9996,2 51805  53.2154 212.3926 0002958  32.4343 327.6830 15.08835115 46577,6917.895,95.438,541.807,537.714,0.0
51805.0,STARLINK-3605,PAYLOAD,2022-12-18 23:53:48,15.08832235,0.0002959,53.2156,211.5005,32.1554,327.9618,5.4992e-05,5.87e-06,0.0,0 STARLINK-3605,1 51805U 22017AP  22352.99569471  .00000587  00000-0  54992-4 0  9998,2 51805  53.2156 211.5005 0002959  32.1554 327.9618 15.08832235 46601,6917.904,95.438,541.816,537.722,0.0
51805.0,STARLINK-3605,PAYLOAD,2022-12-19 07:50:43,15.08836903,0.0002934,53.2154,210.0137,33.527,326.5908,0.00020851,3.031e-05,0.0,0 STARLINK-3605,1 51805U 22017AP  22353.32689542  .00003031  00000-0  20851-3 0  9991,2 51805  53.2154 210.0137 0002934  33.5270 326.5908 15.08836903 46650,6917.89,95.438,541.785,537.725,0.0
51805.0,STARLINK-3605,PAYLOAD,2022-12-19 17:23:02,15.08844819,0.0002947,53.2151,208.2294,34.3387,325.7795,0.00030017,4.493e-05,0.0,0 STARLINK-3605,1 51805U 22017AP  22353.72433337  .00004493  00000-0  30017-3 0  9992,2 51805  53.2151 208.2294 0002947  34.3387 325.7795 15.08844819 46719,6917.866,95.437,541.769,537.692,0.0
51805.0,STARLINK-3605,PAYLOAD,2022-12-19 20:33:48,15.08846236,0.0002943,53.2151,207.6346,34.336,325.7821,0.00031045,4.657e-05,0.0,0 STARLINK-3605,1 51805U 22017AP  22353.85681269  .00004657  00000-0  31045-3 0  9999,2 51805  53.2151 207.6346 0002943  34.3360 325.7821 15.08846236 46734,6917.861,95.437,541.762,537.69,0.0
51805.0,STARLINK-3605,PAYLOAD,2022-12-20 09:16:53,15.08856331,0.0002987,53.2146,205.2561,36.1108,324.0086,0.00057359,8.857e-05,0.0,0 STARLINK-3605,1 51805U 22017AP  22354.38672904  .00008857  00000-0  57359-3 0  9996,2 51805  53.2146 205.2561 0002987  36.1108 324.0086 15.08856331 46810,6917.83,95.437,541.762,537.629,0.0
51805.0,STARLINK-3605,PAYLOAD,2022-12-20 20:24:35,15.08845445,0.0002986,53.2145,203.1742,36.1013,324.0181,0.00014875,2.08e-05,0.0,0 STARLINK-3605,1 51805U 22017AP  22354.85040921  .00002080  00000-0  14875-3 0  9994,2 51805  53.2145 203.1742 0002986  36.1013 324.0181 15.08845445 46888,6917.864000000001,95.437,541.794,537.663,0.0
51805.0,STARLINK-3605,PAYLOAD,2022-12-21 09:07:40,15.08839776,0.0002904,53.2146,200.7952,35.9895,324.1292,2.0898e-05,4.4e-07,0.0,0 STARLINK-3605,1 51805U 22017AP  22355.38033097  .00000044  00000-0  20898-4 0  9990,2 51805  53.2146 200.7952 0002904  35.9895 324.1292 15.08839776 46963,6917.880999999999,95.438,541.755,537.737,0.0
51805.0,STARLINK-3605,PAYLOAD,2022-12-22 12:09:13,15.08843477,0.000297,53.2158,195.7398,37.7513,322.3687,-2.9528000000000013e-05,-7.59e-06,0.0,0 STARLINK-3605,1 51805U 22017AP  22356.50641075 -.00000759  00000-0 -29528-4 0  9990,2 51805  53.2158 195.7398 0002970  37.7513 322.3687 15.08843477 47134,6917.87,95.437,541.789,537.68,0.0
51805.0,STARLINK-3605,PAYLOAD,2022-12-22 16:55:23,15.08841102,0.0003003,53.2159,194.8477,37.1886,322.9314,3.7743e-06,-2.29e-06,0.0,0 STARLINK-3605,1 51805U 22017AP  22356.70513095 -.00000229  00000-0  37743-5 0  9992,2 51805  53.2159 194.8477 0003003  37.1886 322.9314 15.08841102 47167,6917.877,95.437,541.819,537.665,0.0
51805.0,STARLINK-3605,PAYLOAD,2022-12-22 18:30:46,15.08847527,0.0003005,53.2159,194.5503,37.5875,322.5326,-4.1383e-05,-9.47e-06,0.0,0 STARLINK-3605,1 51805U 22017AP  22356.77136805 -.00000947  00000-0 -41383-4 0  9991,2 51805  53.2159 194.5503 0003005  37.5875 322.5326 15.08847527 47175,6917.857,95.437,541.8009999999998,537.644,0.0
51805.0,STARLINK-3605,PAYLOAD,2022-12-23 16:46:10,15.08833403,0.0003071,53.2155,190.3871,38.8707,321.2505,7.392399999999999e-05,8.88e-06,0.0,0 STARLINK-3605,1 51805U 22017AP  22357.69873529  .00000888  00000-0  73924-4 0  9992,2 51805  53.2155 190.3871 0003071  38.8707 321.2505 15.08833403 47313,6917.901,95.438,541.89,537.641,0.0
51805.0,STARLINK-3605,PAYLOAD,2022-12-23 19:56:57,15.08832478,0.0003064,53.2155,189.7921,39.6273,320.4942,6.3737e-05,7.26e-06,0.0,0 STARLINK-3605,1 51805U 22017AP  22357.83121719  .00000726  00000-0  63737-4 0  9997,2 51805  53.2155 189.7921 0003064  39.6273 320.4942 15.08832478 47339,6917.903,95.438,541.888,537.649,0.0
51805.0,STARLINK-3605,PAYLOAD,2022-12-24 11:50:48,15.0883119,0.0003053,53.216,186.8179,39.2914,320.8299,-3.429700000000001e-06,-3.43e-06,0.0,0 STARLINK-3605,1 51805U 22017AP  22358.49362257 -.00000343  00000-0 -34297-5 0  9991,2 51805  53.2160 186.8179 0003053  39.2914 320.8299 15.08831190 47434,6917.906999999997,95.438,541.884,537.66,0.0
51805.0,STARLINK-3605,PAYLOAD,2022-12-24 18:12:21,15.08834926,0.0003086,53.2158,185.629,39.5164,320.6052,-4.909e-06,-3.67e-06,0.0,0 STARLINK-3605,1 51805U 22017AP  22358.75858107 -.00000367  00000-0 -49090-5 0  9997,2 51805  53.2158 185.6290 0003086  39.5164 320.6052 15.08834926 47477,6917.896,95.438,541.896,537.626,0.0
51805.0,STARLINK-3605,PAYLOAD,2022-12-25 05:20:01,15.08852969,0.0003092,53.2159,183.5473,40.6957,319.4265,0.00013887,1.923e-05,0.0,0 STARLINK-3605,1 51805U 22017AP  22359.22224304  .00001923  00000-0  13887-3 0  9996,2 51805  53.2159 183.5473 0003092  40.6957 319.4265 15.08852969 47545,6917.840999999999,95.437,541.845,537.567,0.0
51805.0,STARLINK-3605,PAYLOAD,2022-12-25 14:52:21,15.08836538,0.0003078999999999,53.2155,181.7633,39.7946,320.3271,9.1965e-05,1.175e-05,0.0,0 STARLINK-3605,1 51805U 22017AP  22359.61969251  .00001175  00000-0  91965-4 0  9999,2 51805  53.2155 181.7633 0003079  39.7946 320.3271 15.08836538 47600,6917.891,95.438,541.886,537.626,0.0
51805.0,STARLINK-3605,PAYLOAD,2022-12-26 13:07:45,15.08841004,0.0003159,53.2159,177.6002,41.2903,318.8328,7.2056e-05,8.58e-06,0.0,0 STARLINK-3605,1 51805U 22017AP  22360.54705115  .00000858  00000-0  72056-4 0  9997,2 51805  53.2159 177.6002 0003159  41.2903 318.8328 15.08841004 47742,6917.877,95.437,541.928,537.557,0.0
51805.0,STARLINK-3605,PAYLOAD,2022-12-26 21:04:40,15.08845307,0.0003199,53.2159,176.1132,41.3406,318.7828,7.057399999999999e-05,8.35e-06,0.0,0 STARLINK-3605,1 51805U 22017AP  22360.87824774  .00000835  00000-0  70574-4 0  9994,2 51805  53.2159 176.1132 0003199  41.3406 318.7828 15.08845307 47792,6917.864000000001,95.437,541.942,537.516,0.0
51805.0,STARLINK-3605,PAYLOAD,2022-12-27 05:01:37,15.08834512,0.0003307,53.216,174.6263,41.7833,318.3411,-7.5717e-05,-1.494e-05,0.0,0 STARLINK-3605,1 51805U 22017AP  22361.20945816 -.00001494  00000-0 -75717-4 0  9991,2 51805  53.2160 174.6263 0003307  41.7833 318.3411 15.08834512 47847,6917.897,95.438,542.05,537.474,0.0
51805.0,STARLINK-3605,PAYLOAD,2022-12-27 11:23:09,15.0883571,0.0003232,53.2163,173.4367,41.2168,318.9068,-3.9974e-05,-9.25e-06,0.0,0 STARLINK-3605,1 51805U 22017AP  22361.47441648 -.00000925  00000-0 -39974-4 0  9997,2 51805  53.2163 173.4367 0003232  41.2168 318.9068 15.08835710 47884,6917.894,95.438,541.994,537.523,0.0
51805.0,STARLINK-3605,PAYLOAD,2022-12-27 17:44:42,15.08835603,0.0003113,53.2159,172.2475,39.6574,320.4645,-5.164600000000001e-05,-1.111e-05,0.0,0 STARLINK-3605,1 51805U 22017AP  22361.73937696 -.00001111  00000-0 -51646-4 0  9997,2 51805  53.2159 172.2475 0003113  39.6574 320.4645 15.08835603 47921,6917.894,95.438,541.9119999999998,537.605,0.0
51805.0,STARLINK-3605,PAYLOAD,2022-12-28 11:13:56,15.08840503,0.0003272,53.2163,168.9766,42.7088,317.4158,1.1872e-05,-1e-06,0.0,0 STARLINK-3605,1 51805U 22017AP  22362.46801313 -.00000100  00000-0  11872-4 0  9997,2 51805  53.2163 168.9766 0003272  42.7088 317.4158 15.08840503 48035,6917.879,95.438,542.007,537.48,0.0
51805.0,STARLINK-3605,PAYLOAD,2022-12-28 14:24:42,15.08841923,0.0003231,53.2157,168.3817,42.7051,317.4192,3.4781e-05,2.65e-06,0.0,0 STARLINK-3605,1 51805U 22017AP  22362.60049125  .00000265  00000-0  34781-4 0  9993,2 51805  53.2157 168.3817 0003231  42.7051 317.4192 15.08841923 48051,6917.875,95.437,541.975,537.504,0.0
51805.0,STARLINK-3605,PAYLOAD,2022-12-28 20:46:14,15.08844498,0.0003212,53.2155,167.1919,43.342,316.7824,3.0105e-05,1.9e-06,0.0,0 STARLINK-3605,1 51805U 22017AP  22362.86544926  .00000190  00000-0  30105-4 0  9993,2 51805  53.2155 167.1919 0003212  43.3420 316.7824 15.08844498 48093,6917.8669999999975,95.437,541.9540000000002,537.51,0.0
51805.0,STARLINK-3605,PAYLOAD,2022-12-29 11:04:43,15.08833662,0.0003269,53.2153,164.5158,43.9133,316.2119,5.5838e-05,6e-06,0.0,0 STARLINK-3605,1 51805U 22017AP  22363.46161686  .00000600  00000-0  55838-4 0  9994,2 51805  53.2153 164.5158 0003269  43.9133 316.2119 15.08833662 48189,6917.9,95.438,542.026,537.503,0.0
51805.0,STARLINK-3605,PAYLOAD,2022-12-30 10:55:30,15.08845317,0.0003261,53.2156,160.0552,45.3118,314.8139,4.4498e-05,4.2e-06,0.0,0 STARLINK-3605,1 51805U 22017AP  22364.45521197  .00000420  00000-0  44498-4 0  9991,2 51805  53.2156 160.0552 0003261  45.3118 314.8139 15.08845317 48335,6917.864000000001,95.437,541.985,537.4730000000002,0.0
51805.0,STARLINK-3605,PAYLOAD,2022-12-30 20:27:48,15.08851517,0.0003258,53.2156,158.2706,46.4965,313.6298,9.3086e-05,1.194e-05,0.0,0 STARLINK-3605,1 51805U 22017AP  22364.85264541  .00001194  00000-0  93086-4 0  9998,2 51805  53.2156 158.2706 0003258  46.4965 313.6298 15.08851517 48391,6917.845,95.437,541.964,537.456,0.0
